start=new Date('2022-07-09T00:00:00.000Z').valueOf();
sats=[{"BSTAR":"-0.00357820000000","MEAN_ELEMENT_THEORY":"SGP4","SITE":"AFETR","TLE_LINE1":"1 51959U 22025D   22189.91668981 -.00056886  00000-0 -35782-2 0  9992","OBJECT_ID":"2022-025D","APOAPSIS":"540.818","MEAN_MOTION":"15.08903982","OBJECT_NAME":"STARLINK-3704","COUNTRY_CODE":"US","LAUNCH_DATE":"2022-03-09","ARG_OF_PERICENTER":"41.0727","SEMIMAJOR_AXIS":"6917.685","TIME_SYSTEM":"UTC","REV_AT_EPOCH":"130","RCS_SIZE":"LARGE","NORAD_CAT_ID":"51959","INCLINATION":"53.2155","MEAN_MOTION_DDOT":"0.0000000000000","ECCENTRICITY":"0.00018330","TLE_LINE2":"2 51959  53.2155 283.5952 0001833  41.0727  71.2358 15.08903982  1307","OBJECT_TYPE":"PAYLOAD","REF_FRAME":"TEME","CENTER_NAME":"EARTH","PERIAPSIS":"538.282","DECAY_DATE":null,"EPOCH":"2022-07-08T22:00:01.999584","RA_OF_ASC_NODE":"283.5952","CLASSIFICATION_TYPE":"U","GP_ID":"207697271","MEAN_MOTION_DOT":"-0.00056886","EPHEMERIS_TYPE":"0","PERIOD":"95.434","FILE":"3510087","ELEMENT_SET_NO":"999","MEAN_ANOMALY":"71.2358"},{"OBJECT_TYPE":"PAYLOAD","TLE_LINE2":"2 51960  53.2148 283.5873 0001799  42.5395 109.7458 15.08914180  1301","ECCENTRICITY":"0.00017990","MEAN_MOTION_DDOT":"0.0000000000000","INCLINATION":"53.2148","DECAY_DATE":null,"PERIAPSIS":"538.274","CENTER_NAME":"EARTH","REF_FRAME":"TEME","PERIOD":"95.433","EPHEMERIS_TYPE":"0","GP_ID":"207697021","MEAN_MOTION_DOT":"-0.00067047","RA_OF_ASC_NODE":"283.5873","CLASSIFICATION_TYPE":"U","EPOCH":"2022-07-08T22:00:01.999584","MEAN_ANOMALY":"109.7458","ELEMENT_SET_NO":"999","FILE":"3510087","OBJECT_ID":"2022-025E","TLE_LINE1":"1 51960U 22025E   22189.91668981 -.00067047  00000-0 -42254-2 0  9997","SITE":"AFETR","MEAN_ELEMENT_THEORY":"SGP4","BSTAR":"-0.00422540000000","OBJECT_NAME":"STARLINK-3691","MEAN_MOTION":"15.08914180","APOAPSIS":"540.763","ARG_OF_PERICENTER":"42.5395","LAUNCH_DATE":"2022-03-09","COUNTRY_CODE":"US","NORAD_CAT_ID":"51960","RCS_SIZE":"LARGE","REV_AT_EPOCH":"130","TIME_SYSTEM":"UTC","SEMIMAJOR_AXIS":"6917.654"},{"REF_FRAME":"TEME","DECAY_DATE":null,"CENTER_NAME":"EARTH","PERIAPSIS":"538.263","MEAN_MOTION_DDOT":"0.0000000000000","ECCENTRICITY":"0.00018610","INCLINATION":"53.2161","OBJECT_TYPE":"PAYLOAD","TLE_LINE2":"2 51961  53.2161 283.5989 0001861  35.7630  36.5410 15.08903933  1300","FILE":"3510087","MEAN_ANOMALY":"36.5410","ELEMENT_SET_NO":"999","RA_OF_ASC_NODE":"283.5989","CLASSIFICATION_TYPE":"U","GP_ID":"207696270","MEAN_MOTION_DOT":"-0.00048855","EPOCH":"2022-07-08T22:00:01.999584","PERIOD":"95.434","EPHEMERIS_TYPE":"0","MEAN_MOTION":"15.08903933","APOAPSIS":"540.837","OBJECT_NAME":"STARLINK-3689","MEAN_ELEMENT_THEORY":"SGP4","BSTAR":"-0.00306700000000","OBJECT_ID":"2022-025F","TLE_LINE1":"1 51961U 22025F   22189.91668981 -.00048855  00000-0 -30670-2 0  9993","SITE":"AFETR","TIME_SYSTEM":"UTC","SEMIMAJOR_AXIS":"6917.685","RCS_SIZE":"LARGE","NORAD_CAT_ID":"51961","REV_AT_EPOCH":"130","LAUNCH_DATE":"2022-03-09","ARG_OF_PERICENTER":"35.7630","COUNTRY_CODE":"US"},{"APOAPSIS":"540.784","MEAN_MOTION":"15.08914952","OBJECT_NAME":"STARLINK-3697","BSTAR":"-0.00477190000000","MEAN_ELEMENT_THEORY":"SGP4","SITE":"AFETR","OBJECT_ID":"2022-025G","TLE_LINE1":"1 51962U 22025G   22189.91668981 -.00075593  00000-0 -47719-2 0  9995","SEMIMAJOR_AXIS":"6917.651","TIME_SYSTEM":"UTC","REV_AT_EPOCH":"130","RCS_SIZE":"LARGE","NORAD_CAT_ID":"51962","COUNTRY_CODE":"US","ARG_OF_PERICENTER":"42.5485","LAUNCH_DATE":"2022-03-09","REF_FRAME":"TEME","PERIAPSIS":"538.249","CENTER_NAME":"EARTH","DECAY_DATE":null,"INCLINATION":"53.2141","ECCENTRICITY":"0.00018320","MEAN_MOTION_DDOT":"0.0000000000000","TLE_LINE2":"2 51962  53.2141 283.5859 0001832  42.5485 144.5211 15.08914952  1309","OBJECT_TYPE":"PAYLOAD","FILE":"3510087","ELEMENT_SET_NO":"999","MEAN_ANOMALY":"144.5211","EPOCH":"2022-07-08T22:00:01.999584","GP_ID":"207696520","MEAN_MOTION_DOT":"-0.00075593","RA_OF_ASC_NODE":"283.5859","CLASSIFICATION_TYPE":"U","EPHEMERIS_TYPE":"0","PERIOD":"95.433"},{"SITE":"AFETR","TLE_LINE1":"1 51963U 22025H   22189.91668981 -.00050951  00000-0 -32008-2 0  9992","OBJECT_ID":"2022-025H","BSTAR":"-0.00320080000000","MEAN_ELEMENT_THEORY":"SGP4","OBJECT_NAME":"STARLINK-3675","APOAPSIS":"540.824","MEAN_MOTION":"15.08898874","COUNTRY_CODE":"US","LAUNCH_DATE":"2022-03-09","ARG_OF_PERICENTER":"39.4042","REV_AT_EPOCH":"130","NORAD_CAT_ID":"51963","RCS_SIZE":"LARGE","TIME_SYSTEM":"UTC","SEMIMAJOR_AXIS":"6917.700","TLE_LINE2":"2 51963  53.2171 283.6012 0001820  39.4042  52.8669 15.08898874  1308","OBJECT_TYPE":"PAYLOAD","INCLINATION":"53.2171","MEAN_MOTION_DDOT":"0.0000000000000","ECCENTRICITY":"0.00018200","CENTER_NAME":"EARTH","PERIAPSIS":"538.306","DECAY_DATE":null,"REF_FRAME":"TEME","EPHEMERIS_TYPE":"0","PERIOD":"95.434","EPOCH":"2022-07-08T22:00:01.999584","CLASSIFICATION_TYPE":"U","RA_OF_ASC_NODE":"283.6012","GP_ID":"207696771","MEAN_MOTION_DOT":"-0.00050951","MEAN_ANOMALY":"52.8669","ELEMENT_SET_NO":"999","FILE":"3510087"},{"DECAY_DATE":null,"CENTER_NAME":"EARTH","PERIAPSIS":"538.259","REF_FRAME":"TEME","OBJECT_TYPE":"PAYLOAD","TLE_LINE2":"2 51964  53.2163 283.5795 0001880  38.6780 193.6264 15.08900718  1309","MEAN_MOTION_DDOT":"0.0000000000000","ECCENTRICITY":"0.00018800","INCLINATION":"53.2163","ELEMENT_SET_NO":"999","MEAN_ANOMALY":"193.6264","FILE":"3510087","PERIOD":"95.434","EPHEMERIS_TYPE":"0","RA_OF_ASC_NODE":"283.5795","CLASSIFICATION_TYPE":"U","MEAN_MOTION_DOT":"-0.00053220","GP_ID":"207697522","EPOCH":"2022-07-08T22:00:01.999584","OBJECT_NAME":"STARLINK-3690","MEAN_MOTION":"15.08900718","APOAPSIS":"540.860","OBJECT_ID":"2022-025J","TLE_LINE1":"1 51964U 22025J   22189.91668981 -.00053220  00000-0 -33450-2 0  9997","SITE":"AFETR","MEAN_ELEMENT_THEORY":"SGP4","BSTAR":"-0.00334500000000","NORAD_CAT_ID":"51964","RCS_SIZE":"LARGE","REV_AT_EPOCH":"130","TIME_SYSTEM":"UTC","SEMIMAJOR_AXIS":"6917.695","LAUNCH_DATE":"2022-03-09","ARG_OF_PERICENTER":"38.6780","COUNTRY_CODE":"US"},{"REF_FRAME":"TEME","DECAY_DATE":null,"PERIAPSIS":"538.449","CENTER_NAME":"EARTH","ECCENTRICITY":"0.00016010","MEAN_MOTION_DDOT":"0.0000000000000","INCLINATION":"53.2140","OBJECT_TYPE":"PAYLOAD","TLE_LINE2":"2 51965  53.2140 283.5871 0001601  46.1360 126.1468 15.08901905  1305","FILE":"3510087","MEAN_ANOMALY":"126.1468","ELEMENT_SET_NO":"999","GP_ID":"207695770","MEAN_MOTION_DOT":"-0.00058721","CLASSIFICATION_TYPE":"U","RA_OF_ASC_NODE":"283.5871","EPOCH":"2022-07-08T22:00:01.999584","PERIOD":"95.434","EPHEMERIS_TYPE":"0","MEAN_MOTION":"15.08901905","APOAPSIS":"540.664","OBJECT_NAME":"STARLINK-3696","MEAN_ELEMENT_THEORY":"SGP4","BSTAR":"-0.00369540000000","OBJECT_ID":"2022-025K","TLE_LINE1":"1 51965U 22025K   22189.91668981 -.00058721  00000-0 -36954-2 0  9991","SITE":"AFETR","SEMIMAJOR_AXIS":"6917.691","TIME_SYSTEM":"UTC","NORAD_CAT_ID":"51965","RCS_SIZE":"LARGE","REV_AT_EPOCH":"130","ARG_OF_PERICENTER":"46.1360","LAUNCH_DATE":"2022-03-09","COUNTRY_CODE":"US"},{"FILE":"3510087","ELEMENT_SET_NO":"999","MEAN_ANOMALY":"227.0224","EPOCH":"2022-07-08T22:00:01.999584","RA_OF_ASC_NODE":"283.5778","CLASSIFICATION_TYPE":"U","MEAN_MOTION_DOT":"-0.00051975","GP_ID":"207696020","EPHEMERIS_TYPE":"0","PERIOD":"95.434","REF_FRAME":"TEME","CENTER_NAME":"EARTH","PERIAPSIS":"538.487","DECAY_DATE":null,"INCLINATION":"53.2156","MEAN_MOTION_DDOT":"0.0000000000000","ECCENTRICITY":"0.00015490","TLE_LINE2":"2 51966  53.2156 283.5778 0001549  45.2719 227.0224 15.08901148  1308","OBJECT_TYPE":"PAYLOAD","TIME_SYSTEM":"UTC","SEMIMAJOR_AXIS":"6917.693","REV_AT_EPOCH":"130","NORAD_CAT_ID":"51966","RCS_SIZE":"LARGE","COUNTRY_CODE":"US","LAUNCH_DATE":"2022-03-09","ARG_OF_PERICENTER":"45.2719","APOAPSIS":"540.630","MEAN_MOTION":"15.08901148","OBJECT_NAME":"STARLINK-3699","BSTAR":"-0.00326580000000","MEAN_ELEMENT_THEORY":"SGP4","SITE":"AFETR","TLE_LINE1":"1 51966U 22025L   22189.91668981 -.00051975  00000-0 -32658-2 0  9993","OBJECT_ID":"2022-025L"},{"APOAPSIS":"418.139","MEAN_MOTION":"15.50866623","OBJECT_NAME":"STARLINK-3695","BSTAR":"-0.00024809000000","MEAN_ELEMENT_THEORY":"SGP4","SITE":"AFETR","TLE_LINE1":"1 51967U 22025M   22189.91668981 -.00015023  00000-0 -24809-3 0  9998","OBJECT_ID":"2022-025M","SEMIMAJOR_AXIS":"6792.332","TIME_SYSTEM":"UTC","REV_AT_EPOCH":"130","NORAD_CAT_ID":"51967","RCS_SIZE":"LARGE","COUNTRY_CODE":"US","LAUNCH_DATE":"2022-03-09","ARG_OF_PERICENTER":"79.3238","REF_FRAME":"TEME","CENTER_NAME":"EARTH","PERIAPSIS":"410.254","DECAY_DATE":null,"INCLINATION":"53.2109","MEAN_MOTION_DDOT":"0.0000000000000","ECCENTRICITY":"0.00058040","TLE_LINE2":"2 51967  53.2109 270.7403 0005804  79.3238 169.7048 15.50866623  1303","OBJECT_TYPE":"PAYLOAD","FILE":"3510087","ELEMENT_SET_NO":"999","MEAN_ANOMALY":"169.7048","EPOCH":"2022-07-08T22:00:01.999584","CLASSIFICATION_TYPE":"U","RA_OF_ASC_NODE":"270.7403","GP_ID":"207697272","MEAN_MOTION_DOT":"-0.00015023","EPHEMERIS_TYPE":"0","PERIOD":"92.851"},{"INCLINATION":"53.2156","MEAN_MOTION_DDOT":"0.0000000000000","ECCENTRICITY":"0.00016510","TLE_LINE2":"2 51968  53.2156 283.5780 0001651  49.9793 242.3165 15.08904550  1304","OBJECT_TYPE":"PAYLOAD","REF_FRAME":"TEME","CENTER_NAME":"EARTH","PERIAPSIS":"538.406","DECAY_DATE":null,"EPOCH":"2022-07-08T22:00:01.999584","RA_OF_ASC_NODE":"283.5780","CLASSIFICATION_TYPE":"U","MEAN_MOTION_DOT":"-0.00065155","GP_ID":"207697022","EPHEMERIS_TYPE":"0","PERIOD":"95.433","FILE":"3510087","ELEMENT_SET_NO":"999","MEAN_ANOMALY":"242.3165","BSTAR":"-0.00410570000000","MEAN_ELEMENT_THEORY":"SGP4","SITE":"AFETR","OBJECT_ID":"2022-025N","TLE_LINE1":"1 51968U 22025N   22189.91668981 -.00065155  00000-0 -41057-2 0  9993","APOAPSIS":"540.690","MEAN_MOTION":"15.08904550","OBJECT_NAME":"STARLINK-3681","COUNTRY_CODE":"US","LAUNCH_DATE":"2022-03-09","ARG_OF_PERICENTER":"49.9793","TIME_SYSTEM":"UTC","SEMIMAJOR_AXIS":"6917.683","REV_AT_EPOCH":"130","RCS_SIZE":"LARGE","NORAD_CAT_ID":"51968"}];
